COSMOS 2251 DEB         
1 34822U 93036ABM 17345.52317963  .00003339  00000-0  43595-3 0  9993
2 34822  74.0156  10.2678 0014869 158.2053 201.9759 14.80862941461489
